[
    {
        "Altitude(m)": 607895.799301088,
        "Argument of Periapsis(deg)": 0.0,
        "Eccentricity": 0.0,
        "Inclination(deg)": 60.0,
        "Latitude(deg)": 40.998290609761,
        "Longitude(deg)": -24.91142843896973,
        "Mean Anomaly(deg)": -229.09089999999998,
        "RAAN(deg)": 285.0,
        "Satellite Name": "Test1 1262",
        "Satellite Number": 1262,
        "Semi-Major Axis(m)": 6980739.136638005,
        "Time(s)": 0
    },
    {
        "Altitude(m)": 607795.1124633297,
        "Argument of Periapsis(deg)": 0.00010418945913296404,
        "Eccentricity": 0.0,
        "Inclination(deg)": 60.0,
        "Latitude(deg)": 40.53061560894314,
        "Longitude(deg)": -24.41483374992609,
        "Mean Anomaly(deg)": -228.4707938545382,
        "RAAN(deg)": 284.9995799508602,
        "Satellite Name": "Test1 1262",
        "Satellite Number": 1262,
        "Semi-Major Axis(m)": 6980739.136638005,
        "Time(s)": 10
    }
]